[{"OBJECT_NAME":"BEIDOU-3 M17 (C36)","OBJECT_ID":"2018-093A","EPOCH":"2026-06-26T12:03:21.339648","MEAN_MOTION":1.86228594,"ECCENTRICITY":0.0010136,"INCLINATION":54.1697,"RA_OF_ASC_NODE":181.98,"ARG_OF_PERICENTER":292.4713,"MEAN_ANOMALY":110.1482,"EPHEMERIS_TYPE":0,"CLASSIFICATION_TYPE":"U","NORAD_CAT_ID":43706,"ELEMENT_SET_NO":999,"REV_AT_EPOCH":5171,"BSTAR":0,"MEAN_MOTION_DOT":9.5e-7,"MEAN_MOTION_DDOT":0},{"OBJECT_NAME":"BEIDOU-3 M18 (C37)","OBJECT_ID":"2018-093B","EPOCH":"2026-06-26T07:15:06.898752","MEAN_MOTION":1.8622664,"ECCENTRICITY":0.0008135,"INCLINATION":54.1702,"RA_OF_ASC_NODE":181.9788,"ARG_OF_PERICENTER":321.151,"MEAN_ANOMALY":38.8204,"EPHEMERIS_TYPE":0,"CLASSIFICATION_TYPE":"U","NORAD_CAT_ID":43707,"ELEMENT_SET_NO":999,"REV_AT_EPOCH":5170,"BSTAR":0,"MEAN_MOTION_DOT":9.7e-7,"MEAN_MOTION_DDOT":0},{"OBJECT_NAME":"GPS BIII-1  (PRN 04)","OBJECT_ID":"2018-109A","EPOCH":"2026-06-26T03:45:21.040128","MEAN_MOTION":2.00562253,"ECCENTRICITY":0.00384207,"INCLINATION":55.6873,"RA_OF_ASC_NODE":91.8327,"ARG_OF_PERICENTER":197.7328,"MEAN_ANOMALY":282.2646,"EPHEMERIS_TYPE":0,"CLASSIFICATION_TYPE":"U","NORAD_CAT_ID":43873,"ELEMENT_SET_NO":999,"REV_AT_EPOCH":5525,"BSTAR":0,"MEAN_MOTION_DOT":-6.4e-7,"MEAN_MOTION_DDOT":0},{"OBJECT_NAME":"BEIDOU-3 IGSO-1 (C38)","OBJECT_ID":"2019-023A","EPOCH":"2026-06-24T12:59:44.316960","MEAN_MOTION":1.00289953,"ECCENTRICITY":0.00257477,"INCLINATION":58.7053,"RA_OF_ASC_NODE":37.5725,"ARG_OF_PERICENTER":224.9564,"MEAN_ANOMALY":323.4804,"EPHEMERIS_TYPE":0,"CLASSIFICATION_TYPE":"U","NORAD_CAT_ID":44204,"ELEMENT_SET_NO":999,"REV_AT_EPOCH":728,"BSTAR":0,"MEAN_MOTION_DOT":-2.26e-6,"MEAN_MOTION_DDOT":0},{"OBJECT_NAME":"BEIDOU-2 G8 (C01)","OBJECT_ID":"2019-027A","EPOCH":"2026-06-26T18:22:20.987616","MEAN_MOTION":1.00268875,"ECCENTRICITY":0.0009915,"INCLINATION":1.6828,"RA_OF_ASC_NODE":74.5266,"ARG_OF_PERICENTER":284.8441,"MEAN_ANOMALY":335.5852,"EPHEMERIS_TYPE":0,"CLASSIFICATION_TYPE":"U","NORAD_CAT_ID":44231,"ELEMENT_SET_NO":999,"REV_AT_EPOCH":2617,"BSTAR":0,"MEAN_MOTION_DOT":-2.38e-6,"MEAN_MOTION_DDOT":0},{"OBJECT_NAME":"COSMOS 2534 (758)","OBJECT_ID":"2019-030A","EPOCH":"2026-06-26T14:50:40.657632","MEAN_MOTION":2.13102489,"ECCENTRICITY":0.001357,"INCLINATION":64.3693,"RA_OF_ASC_NODE":192.299,"ARG_OF_PERICENTER":275.0166,"MEAN_ANOMALY":259.5182,"EPHEMERIS_TYPE":0,"CLASSIFICATION_TYPE":"U","NORAD_CAT_ID":44299,"ELEMENT_SET_NO":999,"REV_AT_EPOCH":5512,"BSTAR":0,"MEAN_MOTION_DOT":1.04e-6,"MEAN_MOTION_DDOT":0},{"OBJECT_NAME":"BEIDOU-3 IGSO-2 (C39)","OBJECT_ID":"2019-035A","EPOCH":"2026-06-26T20:34:38.686944","MEAN_MOTION":1.0026383,"ECCENTRICITY":0.0039593,"INCLINATION":55.2494,"RA_OF_ASC_NODE":158.778,"ARG_OF_PERICENTER":216.448,"MEAN_ANOMALY":327.7946,"EPHEMERIS_TYPE":0,"CLASSIFICATION_TYPE":"U","NORAD_CAT_ID":44337,"ELEMENT_SET_NO":999,"REV_AT_EPOCH":2576,"BSTAR":0,"MEAN_MOTION_DOT":-7.3e-7,"MEAN_MOTION_DDOT":0},{"OBJECT_NAME":"GPS BIII-2  (PRN 18)","OBJECT_ID":"2019-056A","EPOCH":"2026-06-25T20:41:32.130816","MEAN_MOTION":2.00570107,"ECCENTRICITY":0.0062408,"INCLINATION":55.6325,"RA_OF_ASC_NODE":330.7975,"ARG_OF_PERICENTER":197.6705,"MEAN_ANOMALY":333.6981,"EPHEMERIS_TYPE":0,"CLASSIFICATION_TYPE":"U","NORAD_CAT_ID":44506,"ELEMENT_SET_NO":999,"REV_AT_EPOCH":5024,"BSTAR":0,"MEAN_MOTION_DOT":-1.05e-6,"MEAN_MOTION_DDOT":0},{"OBJECT_NAME":"BEIDOU-3 M24 (C46)","OBJECT_ID":"2019-061A","EPOCH":"2026-06-26T08:53:46.797792","MEAN_MOTION":1.86229234,"ECCENTRICITY":0.0008516,"INCLINATION":54.3965,"RA_OF_ASC_NODE":182.4177,"ARG_OF_PERICENTER":358.5179,"MEAN_ANOMALY":1.5103,"EPHEMERIS_TYPE":0,"CLASSIFICATION_TYPE":"U","NORAD_CAT_ID":44542,"ELEMENT_SET_NO":999,"REV_AT_EPOCH":4596,"BSTAR":0,"MEAN_MOTION_DOT":9.7e-7,"MEAN_MOTION_DDOT":0},{"OBJECT_NAME":"BEIDOU-3 M23 (C45)","OBJECT_ID":"2019-061B","EPOCH":"2026-06-26T05:44:58.090272","MEAN_MOTION":1.86227611,"ECCENTRICITY":0.0005822,"INCLINATION":54.3955,"RA_OF_ASC_NODE":182.3905,"ARG_OF_PERICENTER":338.2299,"MEAN_ANOMALY":205.4302,"EPHEMERIS_TYPE":0,"CLASSIFICATION_TYPE":"U","NORAD_CAT_ID":44543,"ELEMENT_SET_NO":999,"REV_AT_EPOCH":4596,"BSTAR":0,"MEAN_MOTION_DOT":9.8e-7,"MEAN_MOTION_DDOT":0},{"OBJECT_NAME":"EUTELSAT 5 WEST B (EGNOS/PRN 121)","OBJECT_ID":"2019-067A","EPOCH":"2026-06-26T17:39:43.902720","MEAN_MOTION":1.00271612,"ECCENTRICITY":0.0003427,"INCLINATION":0.0625,"RA_OF_ASC_NODE":5.4393,"ARG_OF_PERICENTER":89.7934,"MEAN_ANOMALY":79.5512,"EPHEMERIS_TYPE":0,"CLASSIFICATION_TYPE":"U","NORAD_CAT_ID":44624,"ELEMENT_SET_NO":999,"REV_AT_EPOCH":2453,"BSTAR":0,"MEAN_MOTION_DOT":-3.1e-7,"MEAN_MOTION_DDOT":0},{"OBJECT_NAME":"BEIDOU-3 M22 (C44)","OBJECT_ID":"2019-078A","EPOCH":"2026-06-26T05:03:18.490752","MEAN_MOTION":1.86227239,"ECCENTRICITY":0.0006246,"INCLINATION":53.9269,"RA_OF_ASC_NODE":299.5096,"ARG_OF_PERICENTER":51.5881,"MEAN_ANOMALY":308.4637,"EPHEMERIS_TYPE":0,"CLASSIFICATION_TYPE":"U","NORAD_CAT_ID":44793,"ELEMENT_SET_NO":999,"REV_AT_EPOCH":4481,"BSTAR":0,"MEAN_MOTION_DOT":-1.01e-6,"MEAN_MOTION_DDOT":0},{"OBJECT_NAME":"BEIDOU-3 M21 (C43)","OBJECT_ID":"2019-078B","EPOCH":"2026-06-26T08:24:45.329760","MEAN_MOTION":1.86227884,"ECCENTRICITY":0.0004077,"INCLINATION":53.8996,"RA_OF_ASC_NODE":299.4656,"ARG_OF_PERICENTER":50.4029,"MEAN_ANOMALY":309.6291,"EPHEMERIS_TYPE":0,"CLASSIFICATION_TYPE":"U","NORAD_CAT_ID":44794,"ELEMENT_SET_NO":999,"REV_AT_EPOCH":4482,"BSTAR":0,"MEAN_MOTION_DOT":-1.0e-6,"MEAN_MOTION_DDOT":0},{"OBJECT_NAME":"COSMOS 2544 (759)","OBJECT_ID":"2019-088A","EPOCH":"2026-06-25T22:41:15.294624","MEAN_MOTION":2.13102928,"ECCENTRICITY":0.00129231,"INCLINATION":65.5707,"RA_OF_ASC_NODE":73.4383,"ARG_OF_PERICENTER":257.6247,"MEAN_ANOMALY":102.267,"EPHEMERIS_TYPE":0,"CLASSIFICATION_TYPE":"U","NORAD_CAT_ID":44850,"ELEMENT_SET_NO":999,"REV_AT_EPOCH":5090,"BSTAR":0,"MEAN_MOTION_DOT":-6.3e-7,"MEAN_MOTION_DDOT":0},{"OBJECT_NAME":"BEIDOU-3 M19 (C41)","OBJECT_ID":"2019-090A","EPOCH":"2026-06-26T07:52:29.712288","MEAN_MOTION":1.86231645,"ECCENTRICITY":0.0017504,"INCLINATION":56.5668,"RA_OF_ASC_NODE":62.4878,"ARG_OF_PERICENTER":297.5955,"MEAN_ANOMALY":244.8186,"EPHEMERIS_TYPE":0,"CLASSIFICATION_TYPE":"U","NORAD_CAT_ID":44864,"ELEMENT_SET_NO":999,"REV_AT_EPOCH":4440,"BSTAR":0,"MEAN_MOTION_DOT":-8.6e-7,"MEAN_MOTION_DDOT":0},{"OBJECT_NAME":"BEIDOU-3 M20 (C42)","OBJECT_ID":"2019-090B","EPOCH":"2026-06-26T03:47:24.031392","MEAN_MOTION":1.86231543,"ECCENTRICITY":0.00152731,"INCLINATION":56.5685,"RA_OF_ASC_NODE":62.5279,"ARG_OF_PERICENTER":312.0808,"MEAN_ANOMALY":205.8058,"EPHEMERIS_TYPE":0,"CLASSIFICATION_TYPE":"U","NORAD_CAT_ID":44865,"ELEMENT_SET_NO":999,"REV_AT_EPOCH":4438,"BSTAR":0,"MEAN_MOTION_DOT":-8.7e-7,"MEAN_MOTION_DDOT":0},{"OBJECT_NAME":"BEIDOU-3 G2 (C60)","OBJECT_ID":"2020-017A","EPOCH":"2026-06-26T18:03:55.979136","MEAN_MOTION":1.00272051,"ECCENTRICITY":0.0002541,"INCLINATION":2.8837,"RA_OF_ASC_NODE":47.5039,"ARG_OF_PERICENTER":38.6328,"MEAN_ANOMALY":179.811,"EPHEMERIS_TYPE":0,"CLASSIFICATION_TYPE":"U","NORAD_CAT_ID":45344,"ELEMENT_SET_NO":999,"REV_AT_EPOCH":2335,"BSTAR":0,"MEAN_MOTION_DOT":-1.32e-6,"MEAN_MOTION_DDOT":0}]
